{"type": "FeatureCollection", "features": [ {"type": "Feature", "properties": {"norad_id": 40118, "name": "GAOFEN-2", "group": "resource", "lat": -42.05580353440064, "lon": 58.71056992932971, "alt_km": 638.6773045023438, "timestamp": "2025-12-18T04:58:34.237735+00:00", "meta": {"OBJECT_NAME": "GAOFEN-2", "OBJECT_ID": "2014-049A", "EPOCH": "2025-12-17T22:40:49.943136", "MEAN_MOTION": 14.80619653, "ECCENTRICITY": 0.00087188, "INCLINATION": 98.0385, "RA_OF_ASC_NODE": 51.1229, "ARG_OF_PERICENTER": 98.512, "MEAN_ANOMALY": 261.708, "EPHEMERIS_TYPE": 0, "CLASSIFICATION_TYPE": "U", "NORAD_CAT_ID": 40118, "ELEMENT_SET_NO": 999, "REV_AT_EPOCH": 61241, "BSTAR": 0.00013091409, "MEAN_MOTION_DOT": 9.52e-06, "MEAN_MOTION_DDOT": 0}, "tle": {"line1": "1 40118U 14049A   25351.94502249  .00000952  00000+0  13091-3 0  9995", "line2": "2 40118  98.0385  51.1229 0008718  98.5120 261.7080 14.80619653612419"}}, "geometry": {"type": "Point", "coordinates": [58.71056992932971, -42.05580353440064]}}, {"type": "Feature", "properties": {"norad_id": 40143, "name": "YAOGAN-21", "group": "resource", "lat": 47.12029467551055, "lon": 27.48592635459837, "alt_km": 484.6641147881037, "timestamp": "2025-12-18T04:58:34.237745+00:00", "meta": {"OBJECT_NAME": "YAOGAN-21", "OBJECT_ID": "2014-053A", "EPOCH": "2025-12-17T22:27:50.162400", "MEAN_MOTION": 15.23729145, "ECCENTRICITY": 0.00092713, "INCLINATION": 97.1752, "RA_OF_ASC_NODE": 35.0234, "ARG_OF_PERICENTER": 24.9165, "MEAN_ANOMALY": 335.2519, "EPHEMERIS_TYPE": 0, "CLASSIFICATION_TYPE": "U", "NORAD_CAT_ID": 40143, "ELEMENT_SET_NO": 999, "REV_AT_EPOCH": 62733, "BSTAR": 0.00017984173, "MEAN_MOTION_DOT": 4.258e-05, "MEAN_MOTION_DDOT": 0}, "tle": {"line1": "1 40143U 14053A   25351.93599725  .00004258  00000+0  17984-3 0  9990", "line2": "2 40143  97.1752  35.0234 0009271  24.9165 335.2519 15.23729145627336"}}, "geometry": {"type": "Point", "coordinates": [27.48592635459837, 47.12029467551055]}}, {"type": "Feature", "properties": {"norad_id": 40275, "name": "YAOGAN-22", "group": "resource", "lat": 65.77798660814445, "lon": -19.3384939518142, "alt_km": 1197.8215246507898, "timestamp": "2025-12-18T04:58:34.237755+00:00", "meta": {"OBJECT_NAME": "YAOGAN-22", "OBJECT_ID": "2014-063A", "EPOCH": "2025-12-17T10:09:25.054560", "MEAN_MOTION": 13.15522862, "ECCENTRICITY": 0.00059894, "INCLINATION": 100.7424, "RA_OF_ASC_NODE": 134.9088, "ARG_OF_PERICENTER": 236.7844, "MEAN_ANOMALY": 123.2694, "EPHEMERIS_TYPE": 0, "CLASSIFICATION_TYPE": "U", "NORAD_CAT_ID": 40275, "ELEMENT_SET_NO": 999, "REV_AT_EPOCH": 53591, "BSTAR": 5.1063601e-05, "MEAN_MOTION_DOT": -2.7e-07, "MEAN_MOTION_DDOT": 0}, "tle": {"line1": "1 40275U 14063A   25351.42320665 -.00000027  00000+0  51064-4 0  9995", "line2": "2 40275 100.7424 134.9088 0005989 236.7844 123.2694 13.15522862535911"}}, "geometry": {"type": "Point", "coordinates": [-19.3384939518142, 65.77798660814445]}}, {"type": "Feature", "properties": {"norad_id": 40298, "name": "ASNARO", "group": "resource", "lat": 13.691301783024816, "lon": 66.21447859123428, "alt_km": 508.3819090167344, "timestamp": "2025-12-18T04:58:34.237765+00:00", "meta": {"OBJECT_NAME": "ASNARO", "OBJECT_ID": "2014-070A", "EPOCH": "2025-12-17T22:35:38.757984", "MEAN_MOTION": 15.19601332, "ECCENTRICITY": 0.00056497, "INCLINATION": 97.3652, "RA_OF_ASC_NODE": 67.7608, "ARG_OF_PERICENTER": 107.9549, "MEAN_ANOMALY": 252.2302, "EPHEMERIS_TYPE": 0, "CLASSIFICATION_TYPE": "U", "NORAD_CAT_ID": 40298, "ELEMENT_SET_NO": 999, "REV_AT_EPOCH": 61648, "BSTAR": 0.00036642457, "MEAN_MOTION_DOT": 7.74e-05, "MEAN_MOTION_DDOT": 0}, "tle": {"line1": "1 40298U 14070A   25351.94142081  .00007740  00000+0  36642-3 0  9991", "line2": "2 40298  97.3652  67.7608 0005649 107.9549 252.2302 15.19601332616482"}}, "geometry": {"type": "Point", "coordinates": [66.21447859123428, 13.691301783024816]}}, {"type": "Feature", "properties": {"norad_id": 40310, "name": "YAOGAN-24", "group": "resource", "lat": -34.125116106055884, "lon": -62.22438591856369, "alt_km": 648.1335361930178, "timestamp": "2025-12-18T04:58:34.237775+00:00", "meta": {"OBJECT_NAME": "YAOGAN-24", "OBJECT_ID": "2014-072A", "EPOCH": "2025-12-17T23:07:43.941792", "MEAN_MOTION": 14.76188157, "ECCENTRICITY": 0.00149466, "INCLINATION": 98.1215, "RA_OF_ASC_NODE": 123.0842, "ARG_OF_PERICENTER": 122.2125, "MEAN_ANOMALY": 238.0536, "EPHEMERIS_TYPE": 0, "CLASSIFICATION_TYPE": "U", "NORAD_CAT_ID": 40310, "ELEMENT_SET_NO": 999, "REV_AT_EPOCH": 59698, "BSTAR": 0.00010940793, "MEAN_MOTION_DOT": 7.05e-06, "MEAN_MOTION_DDOT": 0}, "tle": {"line1": "1 40310U 14072A   25351.96370303  .00000705  00000+0  10941-3 0  9998", "line2": "2 40310  98.1215 123.0842 0014946 122.2125 238.0536 14.76188157596987"}}, "geometry": {"type": "Point", "coordinates": [-62.22438591856369, -34.125116106055884]}}, {"type": "Feature", "properties": {"norad_id": 40336, "name": "CBERS 4", "group": "resource", "lat": -54.741458667939334, "lon": -141.92477672548532, "alt_km": 781.154284975979, "timestamp": "2025-12-18T04:58:34.237785+00:00", "meta": {"OBJECT_NAME": "CBERS 4", "OBJECT_ID": "2014-079A", "EPOCH": "2025-12-17T22:51:49.912992", "MEAN_MOTION": 14.35518822, "ECCENTRICITY": 0.00017582, "INCLINATION": 98.3308, "RA_OF_ASC_NODE": 49.7915, "ARG_OF_PERICENTER": 106.6526, "MEAN_ANOMALY": 253.4853, "EPHEMERIS_TYPE": 0, "CLASSIFICATION_TYPE": "U", "NORAD_CAT_ID": 40336, "ELEMENT_SET_NO": 999, "REV_AT_EPOCH": 57795, "BSTAR": -9.387185e-06, "MEAN_MOTION_DOT": -6.9e-07, "MEAN_MOTION_DDOT": 0}, "tle": {"line1": "1 40336U 14079A   25351.95266103 -.00000069  00000+0 -93872-5 0  9995", "line2": "2 40336  98.3308  49.7915 0001758 106.6526 253.4853 14.35518822577953"}}, "geometry": {"type": "Point", "coordinates": [-141.92477672548532, -54.741458667939334]}}, {"type": "Feature", "properties": {"norad_id": 40362, "name": "YAOGAN-26", "group": "resource", "lat": 69.60144930553906, "lon": -26.790628734281835, "alt_km": 438.95478813595037, "timestamp": "2025-12-18T04:58:34.237795+00:00", "meta": {"OBJECT_NAME": "YAOGAN-26", "OBJECT_ID": "2014-088A", "EPOCH": "2025-12-17T23:59:24.107712", "MEAN_MOTION": 15.39482459, "ECCENTRICITY": 0.00054531, "INCLINATION": 97.0634, "RA_OF_ASC_NODE": 352.4867, "ARG_OF_PERICENTER": 13.1871, "MEAN_ANOMALY": 346.9517, "EPHEMERIS_TYPE": 0, "CLASSIFICATION_TYPE": "U", "NORAD_CAT_ID": 40362, "ELEMENT_SET_NO": 999, "REV_AT_EPOCH": 60975, "BSTAR": 0.00037118043, "MEAN_MOTION_DOT": 0.00014498, "MEAN_MOTION_DDOT": 0}, "tle": {"line1": "1 40362U 14088A   25351.99958458  .00014498  00000+0  37118-3 0  9997", "line2": "2 40362  97.0634 352.4867 0005453  13.1871 346.9517 15.39482459609751"}}, "geometry": {"type": "Point", "coordinates": [-26.790628734281835, 69.60144930553906]}}, {"type": "Feature", "properties": {"norad_id": 40376, "name": "SMAP", "group": "resource", "lat": -80.61347044471566, "lon": 117.01264523001915, "alt_km": 690.5714693930404, "timestamp": "2025-12-18T04:58:34.237806+00:00", "meta": {"OBJECT_NAME": "SMAP", "OBJECT_ID": "2015-003A", "EPOCH": "2025-12-17T21:12:11.832192", "MEAN_MOTION": 14.63351584, "ECCENTRICITY": 0.00012141, "INCLINATION": 98.1288, "RA_OF_ASC_NODE": 356.5332, "ARG_OF_PERICENTER": 91.0615, "MEAN_ANOMALY": 269.0726, "EPHEMERIS_TYPE": 0, "CLASSIFICATION_TYPE": "U", "NORAD_CAT_ID": 40376, "ELEMENT_SET_NO": 999, "REV_AT_EPOCH": 58110, "BSTAR": 0.00010014821, "MEAN_MOTION_DOT": 4.7e-06, "MEAN_MOTION_DDOT": 0}, "tle": {"line1": "1 40376U 15003A   25351.88347028  .00000470  00000+0  10015-3 0  9995", "line2": "2 40376  98.1288 356.5332 0001214  91.0615 269.0726 14.63351584581102"}}, "geometry": {"type": "Point", "coordinates": [117.01264523001915, -80.61347044471566]}}, {"type": "Feature", "properties": {"norad_id": 40536, "name": "KOMPSAT-3A", "group": "resource", "lat": 74.98181006465231, "lon": 177.04728317128937, "alt_km": 423.27855456760426, "timestamp": "2025-12-18T04:58:34.237816+00:00", "meta": {"OBJECT_NAME": "KOMPSAT-3A", "OBJECT_ID": "2015-014A", "EPOCH": "2025-12-17T22:18:40.228128", "MEAN_MOTION": 15.44132071, "ECCENTRICITY": 0.00052469, "INCLINATION": 97.6784, "RA_OF_ASC_NODE": 326.5634, "ARG_OF_PERICENTER": 115.3896, "MEAN_ANOMALY": 244.7895, "EPHEMERIS_TYPE": 0, "CLASSIFICATION_TYPE": "U", "NORAD_CAT_ID": 40536, "ELEMENT_SET_NO": 999, "REV_AT_EPOCH": 59375, "BSTAR": 0.00034593938, "MEAN_MOTION_DOT": 0.00015763, "MEAN_MOTION_DDOT": 0}, "tle": {"line1": "1 40536U 15014A   25351.92963227  .00015763  00000+0  34594-3 0  9994", "line2": "2 40536  97.6784 326.5634 0005246 115.3896 244.7895 15.44132071593756"}}, "geometry": {"type": "Point", "coordinates": [177.04728317128937, 74.98181006465231]}}, {"type": "Feature", "properties": {"norad_id": 40697, "name": "SENTINEL-2A", "group": "resource", "lat": -34.00144463313523, "lon": -121.17575086733618, "alt_km": 795.6228509932234, "timestamp": "2025-12-18T04:58:34.237826+00:00", "meta": {"OBJECT_NAME": "SENTINEL-2A", "OBJECT_ID": "2015-028A", "EPOCH": "2025-12-17T17:54:27.543168", "MEAN_MOTION": 14.30815807, "ECCENTRICITY": 0.00010677, "INCLINATION": 98.5691, "RA_OF_ASC_NODE": 64.2073, "ARG_OF_PERICENTER": 88.7952, "MEAN_ANOMALY": 271.3354, "EPHEMERIS_TYPE": 0, "CLASSIFICATION_TYPE": "U", "NORAD_CAT_ID": 40697, "ELEMENT_SET_NO": 999, "REV_AT_EPOCH": 54778, "BSTAR": 0.0001055847, "MEAN_MOTION_DOT": 2.33e-06, "MEAN_MOTION_DDOT": 0}, "tle": {"line1": "1 40697U 15028A   25351.74615212  .00000233  00000+0  10558-3 0  9995", "line2": "2 40697  98.5691  64.2073 0001067  88.7952 271.3354 14.30815807547784"}}, "geometry": {"type": "Point", "coordinates": [-121.17575086733618, -34.00144463313523]}}]}